STARLINK-36797          
1 67815U 26032U   26069.81020272  .00192165  00000+0  12577-2 0  9992
2 67815  97.2850 256.4095 0001103  73.1958 286.9428 15.75241401  4967
STARLINK-36343          
1 67816U 26032V   26069.83334490 -.00090711  00000+0 -61374-3 0  9991
2 67816  97.2843 256.4791 0001435  71.7062 171.5780 15.75190577  4902
STARLINK-36756          
1 67817U 26032W   26069.80138032  .00271177  00000+0  17556-2 0  9990
2 67817  97.2843 256.4204 0000847  78.8094 281.3266 15.75271353  4957
STARLINK-36346          
1 67818U 26032X   26069.83334490  .00067017  00000+0  44773-3 0  9998
2 67818  97.2844 256.4907 0001541  89.1539 178.1205 15.75134460  4964
STARLINK-36788          
1 67819U 26032Y   26069.81232138  .00219801  00000+0  14336-2 0  9994
2 67819  97.2849 256.4056 0001450  43.6785 316.4595 15.75242547  4967
STARLINK-36353          
1 67820U 26032Z   26069.80843971  .00219634  00000+0  14322-2 0  9997
2 67820  97.2846 256.4105 0001271  67.2657 292.8743 15.75248337  4967
STARLINK-36644          
1 67821U 26033A   26069.57817678  .00499195  00000+0  22148-2 0  9995
2 67821  42.9980 266.0798 0003418 251.7848 108.2652 15.82250741  4763
STARLINK-36643          
1 67822U 26033B   26069.76700721 -.00702882  00000+0 -38027-2 0  9992
2 67822  42.9983 264.9147 0003346 292.2624  67.7893 15.80917025  4796
STARLINK-36646          
1 67823U 26033C   26069.82920922  .00453256  00000+0  20342-2 0  9994
2 67823  42.9982 264.5199 0001116 152.0893 208.0039 15.82122340  4807
STARLINK-36647          
1 67824U 26033D   26069.57592707  .00512717  00000+0  22683-2 0  9991
2 67824  42.9980 266.0620 0003050 271.4853  88.5670 15.82277646  4760
STARLINK-36648          
1 67825U 26033E   26069.57518029  .00811347  00000+0  34460-2 0  9994
2 67825  42.9981 266.0559 0002890 265.0420  95.0122 15.82394183  4764
STARLINK-35865          
1 67826U 26033F   26069.57442845  .00564953  00000+0  24765-2 0  9992
2 67826  42.9983 266.0494 0002991 224.3939 135.6693 15.82341893  4764
STARLINK-36289          
1 67827U 26033G   26069.57367875  .00817265  00000+0  34672-2 0  9997
2 67827  42.9974 266.0430 0003836 252.6928 107.3524 15.82404719  4762
STARLINK-36670          
1 67828U 26033H   26069.57293243  .00423125  00000+0  18964-2 0  9999
2 67828  42.9980 266.0373 0002024 271.2146  88.8493 15.82229040  4763
STARLINK-36144          
1 67829U 26033J   26069.57218014  .00800181  00000+0  34023-2 0  9998
2 67829  42.9977 266.0309 0003353 263.3811  96.6679 15.82399453  4765
STARLINK-36611          
1 67830U 26033K   26069.57143354  .00822350  00000+0  34893-2 0  9991
2 67830  42.9978 266.0248 0003761 250.8710 109.1755 15.82388494  4760
STARLINK-36661          
1 67831U 26033L   26069.00249023  .00297350  00000+0  13608-2 0  9997
2 67831  42.9981 269.5016 0002601 265.6555  94.4019 15.82108507  4673
