[{"OBJECT_NAME":"STARLINK-36797","OBJECT_ID":"2026-032U","EPOCH":"2026-03-10T19:26:41.515008","MEAN_MOTION":15.75241401,"ECCENTRICITY":0.0001103,"INCLINATION":97.285,"RA_OF_ASC_NODE":256.4095,"ARG_OF_PERICENTER":73.1958,"MEAN_ANOMALY":286.9428,"EPHEMERIS_TYPE":0,"CLASSIFICATION_TYPE":"U","NORAD_CAT_ID":67815,"ELEMENT_SET_NO":999,"REV_AT_EPOCH":496,"BSTAR":0.0012577,"MEAN_MOTION_DOT":0.00192165,"MEAN_MOTION_DDOT":0},{"OBJECT_NAME":"STARLINK-36343","OBJECT_ID":"2026-032V","EPOCH":"2026-03-10T20:00:00.999360","MEAN_MOTION":15.75190577,"ECCENTRICITY":0.0001435,"INCLINATION":97.2843,"RA_OF_ASC_NODE":256.4791,"ARG_OF_PERICENTER":71.7062,"MEAN_ANOMALY":171.578,"EPHEMERIS_TYPE":0,"CLASSIFICATION_TYPE":"U","NORAD_CAT_ID":67816,"ELEMENT_SET_NO":999,"REV_AT_EPOCH":490,"BSTAR":-0.00061374,"MEAN_MOTION_DOT":-0.00090711,"MEAN_MOTION_DDOT":0},{"OBJECT_NAME":"STARLINK-36756","OBJECT_ID":"2026-032W","EPOCH":"2026-03-10T19:13:59.259648","MEAN_MOTION":15.75271353,"ECCENTRICITY":8.47e-5,"INCLINATION":97.2843,"RA_OF_ASC_NODE":256.4204,"ARG_OF_PERICENTER":78.8094,"MEAN_ANOMALY":281.3266,"EPHEMERIS_TYPE":0,"CLASSIFICATION_TYPE":"U","NORAD_CAT_ID":67817,"ELEMENT_SET_NO":999,"REV_AT_EPOCH":495,"BSTAR":0.0017556,"MEAN_MOTION_DOT":0.00271177,"MEAN_MOTION_DDOT":0},{"OBJECT_NAME":"STARLINK-36346","OBJECT_ID":"2026-032X","EPOCH":"2026-03-10T20:00:00.999360","MEAN_MOTION":15.7513446,"ECCENTRICITY":0.0001541,"INCLINATION":97.2844,"RA_OF_ASC_NODE":256.4907,"ARG_OF_PERICENTER":89.1539,"MEAN_ANOMALY":178.1205,"EPHEMERIS_TYPE":0,"CLASSIFICATION_TYPE":"U","NORAD_CAT_ID":67818,"ELEMENT_SET_NO":999,"REV_AT_EPOCH":496,"BSTAR":0.00044773,"MEAN_MOTION_DOT":0.00067017,"MEAN_MOTION_DDOT":0},{"OBJECT_NAME":"STARLINK-36788","OBJECT_ID":"2026-032Y","EPOCH":"2026-03-10T19:29:44.567232","MEAN_MOTION":15.75242547,"ECCENTRICITY":0.000145,"INCLINATION":97.2849,"RA_OF_ASC_NODE":256.4056,"ARG_OF_PERICENTER":43.6785,"MEAN_ANOMALY":316.4595,"EPHEMERIS_TYPE":0,"CLASSIFICATION_TYPE":"U","NORAD_CAT_ID":67819,"ELEMENT_SET_NO":999,"REV_AT_EPOCH":496,"BSTAR":0.0014336,"MEAN_MOTION_DOT":0.00219801,"MEAN_MOTION_DDOT":0},{"OBJECT_NAME":"STARLINK-36353","OBJECT_ID":"2026-032Z","EPOCH":"2026-03-10T19:24:09.190944","MEAN_MOTION":15.75248337,"ECCENTRICITY":0.0001271,"INCLINATION":97.2846,"RA_OF_ASC_NODE":256.4105,"ARG_OF_PERICENTER":67.2657,"MEAN_ANOMALY":292.8743,"EPHEMERIS_TYPE":0,"CLASSIFICATION_TYPE":"U","NORAD_CAT_ID":67820,"ELEMENT_SET_NO":999,"REV_AT_EPOCH":496,"BSTAR":0.0014322,"MEAN_MOTION_DOT":0.00219634,"MEAN_MOTION_DDOT":0},{"OBJECT_NAME":"STARLINK-36644","OBJECT_ID":"2026-033A","EPOCH":"2026-03-10T13:52:34.473792","MEAN_MOTION":15.82250741,"ECCENTRICITY":0.0003418,"INCLINATION":42.998,"RA_OF_ASC_NODE":266.0798,"ARG_OF_PERICENTER":251.7848,"MEAN_ANOMALY":108.2652,"EPHEMERIS_TYPE":0,"CLASSIFICATION_TYPE":"U","NORAD_CAT_ID":67821,"ELEMENT_SET_NO":999,"REV_AT_EPOCH":476,"BSTAR":0.0022148,"MEAN_MOTION_DOT":0.00499195,"MEAN_MOTION_DDOT":0},{"OBJECT_NAME":"STARLINK-36643","OBJECT_ID":"2026-033B","EPOCH":"2026-03-10T18:24:29.422944","MEAN_MOTION":15.80917025,"ECCENTRICITY":0.0003346,"INCLINATION":42.9983,"RA_OF_ASC_NODE":264.9147,"ARG_OF_PERICENTER":292.2624,"MEAN_ANOMALY":67.7893,"EPHEMERIS_TYPE":0,"CLASSIFICATION_TYPE":"U","NORAD_CAT_ID":67822,"ELEMENT_SET_NO":999,"REV_AT_EPOCH":479,"BSTAR":-0.0038027,"MEAN_MOTION_DOT":-0.00702882,"MEAN_MOTION_DDOT":0},{"OBJECT_NAME":"STARLINK-36646","OBJECT_ID":"2026-033C","EPOCH":"2026-03-10T19:54:03.676608","MEAN_MOTION":15.8212234,"ECCENTRICITY":0.0001116,"INCLINATION":42.9982,"RA_OF_ASC_NODE":264.5199,"ARG_OF_PERICENTER":152.0893,"MEAN_ANOMALY":208.0039,"EPHEMERIS_TYPE":0,"CLASSIFICATION_TYPE":"U","NORAD_CAT_ID":67823,"ELEMENT_SET_NO":999,"REV_AT_EPOCH":480,"BSTAR":0.0020342,"MEAN_MOTION_DOT":0.00453256,"MEAN_MOTION_DDOT":0},{"OBJECT_NAME":"STARLINK-36647","OBJECT_ID":"2026-033D","EPOCH":"2026-03-10T13:49:20.098848","MEAN_MOTION":15.82277646,"ECCENTRICITY":0.000305,"INCLINATION":42.998,"RA_OF_ASC_NODE":266.062,"ARG_OF_PERICENTER":271.4853,"MEAN_ANOMALY":88.567,"EPHEMERIS_TYPE":0,"CLASSIFICATION_TYPE":"U","NORAD_CAT_ID":67824,"ELEMENT_SET_NO":999,"REV_AT_EPOCH":476,"BSTAR":0.0022683,"MEAN_MOTION_DOT":0.00512717,"MEAN_MOTION_DDOT":0},{"OBJECT_NAME":"STARLINK-36648","OBJECT_ID":"2026-033E","EPOCH":"2026-03-10T13:48:15.577056","MEAN_MOTION":15.82394183,"ECCENTRICITY":0.000289,"INCLINATION":42.9981,"RA_OF_ASC_NODE":266.0559,"ARG_OF_PERICENTER":265.042,"MEAN_ANOMALY":95.0122,"EPHEMERIS_TYPE":0,"CLASSIFICATION_TYPE":"U","NORAD_CAT_ID":67825,"ELEMENT_SET_NO":999,"REV_AT_EPOCH":476,"BSTAR":0.003446,"MEAN_MOTION_DOT":0.00811347,"MEAN_MOTION_DDOT":0},{"OBJECT_NAME":"STARLINK-35865","OBJECT_ID":"2026-033F","EPOCH":"2026-03-10T13:47:10.618080","MEAN_MOTION":15.82341893,"ECCENTRICITY":0.0002991,"INCLINATION":42.9983,"RA_OF_ASC_NODE":266.0494,"ARG_OF_PERICENTER":224.3939,"MEAN_ANOMALY":135.6693,"EPHEMERIS_TYPE":0,"CLASSIFICATION_TYPE":"U","NORAD_CAT_ID":67826,"ELEMENT_SET_NO":999,"REV_AT_EPOCH":476,"BSTAR":0.0024765,"MEAN_MOTION_DOT":0.00564953,"MEAN_MOTION_DDOT":0},{"OBJECT_NAME":"STARLINK-36289","OBJECT_ID":"2026-033G","EPOCH":"2026-03-10T13:46:05.844000","MEAN_MOTION":15.82404719,"ECCENTRICITY":0.0003836,"INCLINATION":42.9974,"RA_OF_ASC_NODE":266.043,"ARG_OF_PERICENTER":252.6928,"MEAN_ANOMALY":107.3524,"EPHEMERIS_TYPE":0,"CLASSIFICATION_TYPE":"U","NORAD_CAT_ID":67827,"ELEMENT_SET_NO":999,"REV_AT_EPOCH":476,"BSTAR":0.0034672,"MEAN_MOTION_DOT":0.00817265,"MEAN_MOTION_DDOT":0},{"OBJECT_NAME":"STARLINK-36670","OBJECT_ID":"2026-033H","EPOCH":"2026-03-10T13:45:01.361952","MEAN_MOTION":15.8222904,"ECCENTRICITY":0.0002024,"INCLINATION":42.998,"RA_OF_ASC_NODE":266.0373,"ARG_OF_PERICENTER":271.2146,"MEAN_ANOMALY":88.8493,"EPHEMERIS_TYPE":0,"CLASSIFICATION_TYPE":"U","NORAD_CAT_ID":67828,"ELEMENT_SET_NO":999,"REV_AT_EPOCH":476,"BSTAR":0.0018964,"MEAN_MOTION_DOT":0.00423125,"MEAN_MOTION_DDOT":0},{"OBJECT_NAME":"STARLINK-36144","OBJECT_ID":"2026-033J","EPOCH":"2026-03-10T13:43:56.364096","MEAN_MOTION":15.82399453,"ECCENTRICITY":0.0003353,"INCLINATION":42.9977,"RA_OF_ASC_NODE":266.0309,"ARG_OF_PERICENTER":263.3811,"MEAN_ANOMALY":96.6679,"EPHEMERIS_TYPE":0,"CLASSIFICATION_TYPE":"U","NORAD_CAT_ID":67829,"ELEMENT_SET_NO":999,"REV_AT_EPOCH":476,"BSTAR":0.0034023,"MEAN_MOTION_DOT":0.00800181,"MEAN_MOTION_DDOT":0},{"OBJECT_NAME":"STARLINK-36611","OBJECT_ID":"2026-033K","EPOCH":"2026-03-10T13:42:51.857856","MEAN_MOTION":15.82388494,"ECCENTRICITY":0.0003761,"INCLINATION":42.9978,"RA_OF_ASC_NODE":266.0248,"ARG_OF_PERICENTER":250.871,"MEAN_ANOMALY":109.1755,"EPHEMERIS_TYPE":0,"CLASSIFICATION_TYPE":"U","NORAD_CAT_ID":67830,"ELEMENT_SET_NO":999,"REV_AT_EPOCH":476,"BSTAR":0.0034893,"MEAN_MOTION_DOT":0.0082235,"MEAN_MOTION_DDOT":0},{"OBJECT_NAME":"STARLINK-36661","OBJECT_ID":"2026-033L","EPOCH":"2026-03-10T00:03:35.155872","MEAN_MOTION":15.82108507,"ECCENTRICITY":0.00026016,"INCLINATION":42.9981,"RA_OF_ASC_NODE":269.5016,"ARG_OF_PERICENTER":265.6555,"MEAN_ANOMALY":94.4019,"EPHEMERIS_TYPE":0,"CLASSIFICATION_TYPE":"U","NORAD_CAT_ID":67831,"ELEMENT_SET_NO":999,"REV_AT_EPOCH":467,"BSTAR":0.0013607558,"MEAN_MOTION_DOT":0.0029735,"MEAN_MOTION_DDOT":0}]
